VELOX-CI                
1 41166U 15077A   26067.45710889  .00034094  00000+0  65686-3 0  9994
2 41166  14.9820 142.3315 0005347 190.5671 169.4542 15.45693088567098
STARLINK-1365           
1 45590U 20025BM  26068.79800418  .00083456  00000+0  17117-2 0  9995
2 45590  53.0531  93.0266 0003807  36.2597 323.8666 15.45345802325302
