[{"OBJECT_NAME":"VELOX-CI","OBJECT_ID":"2015-077A","EPOCH":"2026-03-08T10:58:14.208096","MEAN_MOTION":15.45693088,"ECCENTRICITY":0.00053474,"INCLINATION":14.982,"RA_OF_ASC_NODE":142.3315,"ARG_OF_PERICENTER":190.5671,"MEAN_ANOMALY":169.4542,"EPHEMERIS_TYPE":0,"CLASSIFICATION_TYPE":"U","NORAD_CAT_ID":41166,"ELEMENT_SET_NO":999,"REV_AT_EPOCH":56709,"BSTAR":0.00065686115,"MEAN_MOTION_DOT":0.00034094,"MEAN_MOTION_DDOT":0},{"OBJECT_NAME":"STARLINK-1365","OBJECT_ID":"2020-025BM","EPOCH":"2026-03-09T19:09:07.562016","MEAN_MOTION":15.45345802,"ECCENTRICITY":0.00038073,"INCLINATION":53.0531,"RA_OF_ASC_NODE":93.0266,"ARG_OF_PERICENTER":36.2597,"MEAN_ANOMALY":323.8666,"EPHEMERIS_TYPE":0,"CLASSIFICATION_TYPE":"U","NORAD_CAT_ID":45590,"ELEMENT_SET_NO":999,"REV_AT_EPOCH":32530,"BSTAR":0.0017116599,"MEAN_MOTION_DOT":0.00083456,"MEAN_MOTION_DDOT":0}]
